[{"OBJECT_NAME":"SARAL","OBJECT_ID":"2013-009A","EPOCH":"2026-04-25T19:22:32.735712","MEAN_MOTION":14.32842611,"ECCENTRICITY":0.0002994,"INCLINATION":98.5566,"RA_OF_ASC_NODE":303.036,"ARG_OF_PERICENTER":84.2866,"MEAN_ANOMALY":275.8659,"EPHEMERIS_TYPE":0,"CLASSIFICATION_TYPE":"U","NORAD_CAT_ID":39086,"ELEMENT_SET_NO":999,"REV_AT_EPOCH":68810,"BSTAR":5.0958e-5,"MEAN_MOTION_DOT":9.5e-7,"MEAN_MOTION_DDOT":0},{"OBJECT_NAME":"GAOFEN-1","OBJECT_ID":"2013-018A","EPOCH":"2026-04-25T19:32:39.634368","MEAN_MOTION":14.76513848,"ECCENTRICITY":0.0018483,"INCLINATION":97.9107,"RA_OF_ASC_NODE":188.9405,"ARG_OF_PERICENTER":75.872,"MEAN_ANOMALY":284.4542,"EPHEMERIS_TYPE":0,"CLASSIFICATION_TYPE":"U","NORAD_CAT_ID":39150,"ELEMENT_SET_NO":999,"REV_AT_EPOCH":70051,"BSTAR":5.5393e-5,"MEAN_MOTION_DOT":3.36e-6,"MEAN_MOTION_DDOT":0},{"OBJECT_NAME":"VNREDSAT 1","OBJECT_ID":"2013-021B","EPOCH":"2026-04-25T20:01:02.071200","MEAN_MOTION":14.64949785,"ECCENTRICITY":0.0001262,"INCLINATION":97.9122,"RA_OF_ASC_NODE":171.2486,"ARG_OF_PERICENTER":88.7672,"MEAN_ANOMALY":271.3676,"EPHEMERIS_TYPE":0,"CLASSIFICATION_TYPE":"U","NORAD_CAT_ID":39160,"ELEMENT_SET_NO":999,"REV_AT_EPOCH":69262,"BSTAR":6.1216e-5,"MEAN_MOTION_DOT":2.82e-6,"MEAN_MOTION_DDOT":0},{"OBJECT_NAME":"ARIRANG-5 (KOMPSAT-5)","OBJECT_ID":"2013-042A","EPOCH":"2026-04-25T18:10:54.288192","MEAN_MOTION":15.04498417,"ECCENTRICITY":0.0002701,"INCLINATION":97.6215,"RA_OF_ASC_NODE":303.1921,"ARG_OF_PERICENTER":348.9406,"MEAN_ANOMALY":11.176,"EPHEMERIS_TYPE":0,"CLASSIFICATION_TYPE":"U","NORAD_CAT_ID":39227,"ELEMENT_SET_NO":999,"REV_AT_EPOCH":69597,"BSTAR":4.9177e-5,"MEAN_MOTION_DOT":6.28e-6,"MEAN_MOTION_DDOT":0},{"OBJECT_NAME":"SKYSAT-A","OBJECT_ID":"2013-066C","EPOCH":"2026-04-25T14:33:59.361984","MEAN_MOTION":15.12661764,"ECCENTRICITY":0.0022904,"INCLINATION":97.3867,"RA_OF_ASC_NODE":166.6784,"ARG_OF_PERICENTER":133.5959,"MEAN_ANOMALY":226.7178,"EPHEMERIS_TYPE":0,"CLASSIFICATION_TYPE":"U","NORAD_CAT_ID":39418,"ELEMENT_SET_NO":999,"REV_AT_EPOCH":68053,"BSTAR":0.00018101,"MEAN_MOTION_DOT":3.121e-5,"MEAN_MOTION_DDOT":0},{"OBJECT_NAME":"DUBAISAT-2","OBJECT_ID":"2013-066D","EPOCH":"2026-04-25T20:26:22.159968","MEAN_MOTION":15.09788544,"ECCENTRICITY":0.0010305,"INCLINATION":97.4563,"RA_OF_ASC_NODE":107.3877,"ARG_OF_PERICENTER":205.7314,"MEAN_ANOMALY":154.3404,"EPHEMERIS_TYPE":0,"CLASSIFICATION_TYPE":"U","NORAD_CAT_ID":39419,"ELEMENT_SET_NO":999,"REV_AT_EPOCH":67849,"BSTAR":0.00027532,"MEAN_MOTION_DOT":4.39e-5,"MEAN_MOTION_DDOT":0},{"OBJECT_NAME":"GPM-CORE","OBJECT_ID":"2014-009C","EPOCH":"2026-04-25T20:12:21.735072","MEAN_MOTION":15.44649623,"ECCENTRICITY":0.0012228,"INCLINATION":64.9709,"RA_OF_ASC_NODE":123.5395,"ARG_OF_PERICENTER":260.3733,"MEAN_ANOMALY":99.6026,"EPHEMERIS_TYPE":0,"CLASSIFICATION_TYPE":"U","NORAD_CAT_ID":39574,"ELEMENT_SET_NO":999,"REV_AT_EPOCH":68972,"BSTAR":0.00016612,"MEAN_MOTION_DOT":7.552e-5,"MEAN_MOTION_DDOT":0},{"OBJECT_NAME":"SENTINEL-1A","OBJECT_ID":"2014-016A","EPOCH":"2026-04-25T20:12:12.263040","MEAN_MOTION":14.59199068,"ECCENTRICITY":0.0001412,"INCLINATION":98.1806,"RA_OF_ASC_NODE":124.1359,"ARG_OF_PERICENTER":84.0237,"MEAN_ANOMALY":276.1124,"EPHEMERIS_TYPE":0,"CLASSIFICATION_TYPE":"U","NORAD_CAT_ID":39634,"ELEMENT_SET_NO":999,"REV_AT_EPOCH":64238,"BSTAR":1.0734e-5,"MEAN_MOTION_DOT":5.0e-8,"MEAN_MOTION_DDOT":0},{"OBJECT_NAME":"KAZEOSAT 1","OBJECT_ID":"2014-024A","EPOCH":"2026-04-25T18:35:31.631424","MEAN_MOTION":14.42057788,"ECCENTRICITY":0.0001427,"INCLINATION":98.3216,"RA_OF_ASC_NODE":189.5206,"ARG_OF_PERICENTER":98.7562,"MEAN_ANOMALY":261.379,"EPHEMERIS_TYPE":0,"CLASSIFICATION_TYPE":"U","NORAD_CAT_ID":39731,"ELEMENT_SET_NO":999,"REV_AT_EPOCH":63100,"BSTAR":3.2963e-5,"MEAN_MOTION_DOT":6.6e-7,"MEAN_MOTION_DDOT":0},{"OBJECT_NAME":"ALOS-2","OBJECT_ID":"2014-029A","EPOCH":"2026-04-25T04:23:01.850784","MEAN_MOTION":14.79472741,"ECCENTRICITY":0.00018283,"INCLINATION":97.9197,"RA_OF_ASC_NODE":213.1044,"ARG_OF_PERICENTER":85.938,"MEAN_ANOMALY":274.2041,"EPHEMERIS_TYPE":0,"CLASSIFICATION_TYPE":"U","NORAD_CAT_ID":39766,"ELEMENT_SET_NO":999,"REV_AT_EPOCH":64374,"BSTAR":5.6478626e-5,"MEAN_MOTION_DOT":3.7e-6,"MEAN_MOTION_DDOT":0},{"OBJECT_NAME":"KAZEOSAT 2","OBJECT_ID":"2014-033A","EPOCH":"2026-04-25T19:44:30.745248","MEAN_MOTION":14.85403931,"ECCENTRICITY":0.0009717,"INCLINATION":97.5456,"RA_OF_ASC_NODE":318.1916,"ARG_OF_PERICENTER":125.6479,"MEAN_ANOMALY":234.5643,"EPHEMERIS_TYPE":0,"CLASSIFICATION_TYPE":"U","NORAD_CAT_ID":40010,"ELEMENT_SET_NO":999,"REV_AT_EPOCH":64118,"BSTAR":-2.8702e-6,"MEAN_MOTION_DOT":-7.5e-7,"MEAN_MOTION_DDOT":0},{"OBJECT_NAME":"HODOYOSHI-4","OBJECT_ID":"2014-033B","EPOCH":"2026-04-25T20:29:07.501920","MEAN_MOTION":14.87995121,"ECCENTRICITY":0.0024939,"INCLINATION":97.5464,"RA_OF_ASC_NODE":303.2061,"ARG_OF_PERICENTER":117.4513,"MEAN_ANOMALY":242.9244,"EPHEMERIS_TYPE":0,"CLASSIFICATION_TYPE":"U","NORAD_CAT_ID":40011,"ELEMENT_SET_NO":999,"REV_AT_EPOCH":64102,"BSTAR":0.00012103,"MEAN_MOTION_DOT":1.064e-5,"MEAN_MOTION_DDOT":0},{"OBJECT_NAME":"DEIMOS-2","OBJECT_ID":"2014-033D","EPOCH":"2026-04-25T19:05:41.320896","MEAN_MOTION":14.93571852,"ECCENTRICITY":0.0002068,"INCLINATION":97.5896,"RA_OF_ASC_NODE":352.1094,"ARG_OF_PERICENTER":104.0251,"MEAN_ANOMALY":256.1199,"EPHEMERIS_TYPE":0,"CLASSIFICATION_TYPE":"U","NORAD_CAT_ID":40013,"ELEMENT_SET_NO":999,"REV_AT_EPOCH":62990,"BSTAR":0.00012779,"MEAN_MOTION_DOT":1.293e-5,"MEAN_MOTION_DDOT":0},{"OBJECT_NAME":"HODOYOSHI-3","OBJECT_ID":"2014-033F","EPOCH":"2026-04-25T16:57:19.361376","MEAN_MOTION":14.85266814,"ECCENTRICITY":0.0033363,"INCLINATION":97.6373,"RA_OF_ASC_NODE":280.8781,"ARG_OF_PERICENTER":165.0432,"MEAN_ANOMALY":195.1778,"EPHEMERIS_TYPE":0,"CLASSIFICATION_TYPE":"U","NORAD_CAT_ID":40015,"ELEMENT_SET_NO":999,"REV_AT_EPOCH":63983,"BSTAR":0.00012867,"MEAN_MOTION_DOT":1.063e-5,"MEAN_MOTION_DDOT":0},{"OBJECT_NAME":"SPOT 7","OBJECT_ID":"2014-034A","EPOCH":"2026-04-25T20:31:20.646048","MEAN_MOTION":14.609102,"ECCENTRICITY":0.0001567,"INCLINATION":98.0659,"RA_OF_ASC_NODE":179.6876,"ARG_OF_PERICENTER":79.5296,"MEAN_ANOMALY":280.6082,"EPHEMERIS_TYPE":0,"CLASSIFICATION_TYPE":"U","NORAD_CAT_ID":40053,"ELEMENT_SET_NO":999,"REV_AT_EPOCH":62949,"BSTAR":6.5611e-5,"MEAN_MOTION_DOT":2.76e-6,"MEAN_MOTION_DDOT":0},{"OBJECT_NAME":"SKYSAT-B","OBJECT_ID":"2014-037D","EPOCH":"2026-04-25T20:58:52.868928","MEAN_MOTION":14.87885069,"ECCENTRICITY":0.0007029,"INCLINATION":98.3799,"RA_OF_ASC_NODE":71.8768,"ARG_OF_PERICENTER":88.0192,"MEAN_ANOMALY":272.1827,"EPHEMERIS_TYPE":0,"CLASSIFICATION_TYPE":"U","NORAD_CAT_ID":40072,"ELEMENT_SET_NO":999,"REV_AT_EPOCH":63818,"BSTAR":0.00016426,"MEAN_MOTION_DOT":1.442e-5,"MEAN_MOTION_DDOT":0},{"OBJECT_NAME":"WORLDVIEW-3 (WV-3)","OBJECT_ID":"2014-048A","EPOCH":"2026-04-25T19:28:10.818048","MEAN_MOTION":14.84932287,"ECCENTRICITY":0.0002818,"INCLINATION":97.8578,"RA_OF_ASC_NODE":191.3669,"ARG_OF_PERICENTER":109.706,"MEAN_ANOMALY":250.4459,"EPHEMERIS_TYPE":0,"CLASSIFICATION_TYPE":"U","NORAD_CAT_ID":40115,"ELEMENT_SET_NO":999,"REV_AT_EPOCH":63413,"BSTAR":0.00010638,"MEAN_MOTION_DOT":8.52e-6,"MEAN_MOTION_DDOT":0}]
