SARAL                   
1 39086U 13009A   26115.80732333  .00000095  00000+0  50958-4 0  9997
2 39086  98.5566 303.0360 0002994  84.2866 275.8659 14.32842611688107
GAOFEN-1                
1 39150U 13018A   26115.81434762  .00000336  00000+0  55393-4 0  9991
2 39150  97.9107 188.9405 0018483  75.8720 284.4542 14.76513848700510
VNREDSAT 1              
1 39160U 13021B   26115.83405175  .00000282  00000+0  61216-4 0  9995
2 39160  97.9122 171.2486 0001262  88.7672 271.3676 14.64949785692623
ARIRANG-5 (KOMPSAT-5)   
1 39227U 13042A   26115.75757278  .00000628  00000+0  49177-4 0  9993
2 39227  97.6215 303.1921 0002701 348.9406  11.1760 15.04498417695973
SKYSAT-A                
1 39418U 13066C   26115.60693706  .00003121  00000+0  18101-3 0  9993
2 39418  97.3867 166.6784 0022904 133.5959 226.7178 15.12661764680531
DUBAISAT-2              
1 39419U 13066D   26115.85164537  .00004390  00000+0  27532-3 0  9993
2 39419  97.4563 107.3877 0010305 205.7314 154.3404 15.09788544678492
GPM-CORE                
1 39574U 14009C   26115.84191823  .00007552  00000+0  16612-3 0  9990
2 39574  64.9709 123.5395 0012228 260.3733  99.6026 15.44649623689720
SENTINEL-1A             
1 39634U 14016A   26115.84180860  .00000005  00000+0  10734-4 0  9990
2 39634  98.1806 124.1359 0001412  84.0237 276.1124 14.59199068642384
KAZEOSAT 1              
1 39731U 14024A   26115.77467166  .00000066  00000+0  32963-4 0  9991
2 39731  98.3216 189.5206 0001427  98.7562 261.3790 14.42057788631000
ALOS-2                  
1 39766U 14029A   26115.18266031  .00000370  00000+0  56479-4 0  9993
2 39766  97.9197 213.1044 0001828  85.9380 274.2041 14.79472741643742
KAZEOSAT 2              
1 40010U 14033A   26115.82257807 -.00000075  00000+0 -28702-5 0  9997
2 40010  97.5456 318.1916 0009717 125.6479 234.5643 14.85403931641185
HODOYOSHI-4             
1 40011U 14033B   26115.85355905  .00001064  00000+0  12103-3 0  9992
2 40011  97.5464 303.2061 0024939 117.4513 242.9244 14.87995121641024
DEIMOS-2                
1 40013U 14033D   26115.79561714  .00001293  00000+0  12779-3 0  9997
2 40013  97.5896 352.1094 0002068 104.0251 256.1199 14.93571852629901
HODOYOSHI-3             
1 40015U 14033F   26115.70647409  .00001063  00000+0  12867-3 0  9999
2 40015  97.6373 280.8781 0033363 165.0432 195.1778 14.85266814639832
SPOT 7                  
1 40053U 14034A   26115.85510007  .00000276  00000+0  65611-4 0  9992
2 40053  98.0659 179.6876 0001567  79.5296 280.6082 14.60910200629491
SKYSAT-B                
1 40072U 14037D   26115.87422302  .00001442  00000+0  16426-3 0  9993
2 40072  98.3799  71.8768 0007029  88.0192 272.1827 14.87885069638184
WORLDVIEW-3 (WV-3)      
1 40115U 14048A   26115.81123632  .00000852  00000+0  10638-3 0  9994
2 40115  97.8578 191.3669 0002818 109.7060 250.4459 14.84932287634138
